CZ-4B R/B               
1 28059U 03049C   25029.50584189  .00001217  00000+0  29330-3 0  9998
2 28059  98.6432   4.7480 0049235  26.6048 333.7658 14.54429359127832
CZ-2C R/B               
1 28222U 04012C   25029.34621676  .00027835  00000+0  75892-3 0  9994
2 28222  97.7860  59.8700 0026685 336.8651  23.1389 15.37068351141701
SL-16 R/B               
1 28353U 04021B   25029.32380171  .00000163  00000+0  11003-3 0  9998
2 28353  71.0012   1.0312 0007203 285.0365  74.9960 14.14509188 65650
CZ-4B R/B               
1 28415U 04035C   25029.05060991  .00013055  00000+0  57624-3 0  9990
2 28415  97.3979  64.2163 0037039 317.8391  41.9997 15.21255913118230
CZ-2C R/B               
1 28480U 04046B   25029.57052319  .00000523  00000+0  21106-3 0  9998
2 28480  98.1869 324.9313 0138710 269.9337  88.5951 14.26710958 50878
ARIANE 5 R/B            
1 28499U 04049H   25029.39145029  .00002846  00000+0  32816-3 0  9992
2 28499  98.2109 179.2744 0085402 220.3967 139.0884 14.83930219 85809
CZ-2D R/B               
1 28738U 05024B   25029.47609435  .00027243  00000+0  75891-3 0  9995
2 28738  97.3681  32.4659 0009257  65.8198 294.4013 15.36722324 77285
ALOS (DAICHI)           
1 28931U 06002A   25029.43197099  .00003830  00000+0  67948-3 0  9991
2 28931  98.0679 344.3467 0002210 103.5880 256.5571 14.67805972 14134
H-2A R/B                
1 28932U 06002B   25029.54986749  .00016151  00000+0  10175-2 0  9991
2 28932  98.2003 140.9356 0062615 167.8974 192.3774 15.07600610 33362
RESURS-DK 1             
1 29228U 06021A   25029.53998464  .00004948  00000+0  31223-3 0  9996
2 29228  69.9329 200.1441 0004356 340.7502  19.3497 15.09742755 26460
GENESIS 1               
1 29252U 06029A   25029.53587720  .00064119  00000+0  75850-3 0  9990
2 29252  64.5081 111.4187 0034472 301.8132  57.9656 15.60160312 25625
CZ-4B R/B               
1 29507U 06046C   25029.37953374  .00009233  00000+0  53613-3 0  9995
2 29507  97.6161  70.3954 0036041 221.4220 138.4276 15.11792777998846
CZ-2C R/B               
1 31114U 07010B   25029.59586573  .00000281  00000+0  14843-3 0  9997
2 31114  98.3588 158.8855 0059686  30.5212 329.9417 14.20038014922360
COSMO-SKYMED 1          
1 31598U 07023A   25029.63378862  .00001305  00000+0  17039-3 0  9990
2 31598  97.8879 215.5215 0001164  81.2069 278.9276 14.82165411954669
GENESIS 2               
1 31789U 07028A   25029.63300859  .00053927  00000+0  76861-3 0  9993
2 31789  64.4824 159.0694 0012989 311.8143  48.1889 15.55899711972403
COSMOS 2428             
1 31792U 07029A   25029.56023314  .00000034  00000+0  43981-4 0  9997
2 31792  70.9460 331.6632 0002954  91.1944 268.9515 14.12851603907016
SL-16 R/B               
1 31793U 07029B   25029.51943281  .00000183  00000+0  11989-3 0  9994
2 31793  70.9772 301.9246 0002788 266.9435 265.5718 14.14743614908200
KORONAS-FOTON           
1 33504U 09003A   25029.57546922  .00013706  00000+0  42742-3 0  9993
2 33504  82.4373 332.5605 0013686 150.1419 210.0607 15.33013519883627
CZ-2C R/B               
1 37731U 11030B   25029.50160562  .00002960  00000+0  39386-3 0  9997
2 37731  97.7967 351.8399 0053125 224.1298 249.6232 14.79480504730291
H-2A R/B                
1 38341U 12025E   25029.51947035  .00005071  00000+0  50138-3 0  9993
2 38341  98.4289 321.7734 0047424 190.8397 169.1802 14.91563753687895
CUSAT 2 & FALCON 9 R/B  
1 39271U 13055G   25029.61672306  .00834648 -81955-6  89814-3 0  9996
2 39271  80.8994 154.1383 0077043 238.3419 121.0326 16.03834517600467
SHIJIAN-16 (SJ-16)      
1 39358U 13057A   25029.56950804  .00002039  00000+0  21050-3 0  9993
2 39358  74.9703 229.1785 0016472  10.5040 349.6488 14.90633538611253
SL-4 R/B                
1 39679U 14021B   25029.56928054  .00014193  00000+0  42904-3 0  9998
2 39679  51.6091 130.8920 0122199  82.5994 278.8852 15.27419140594273
ALOS-2                  
1 39766U 14029A   25029.54498547  .00004063  00000+0  55069-3 0  9991
2 39766  97.9231 128.9451 0001451 103.1772 256.9601 14.79471513577118
YAOGAN-29               
1 41038U 15069A   25029.55913836  .00001082  00000+0  14203-3 0  9998
2 41038  98.0455  51.2632 0001211 161.9760 198.1496 14.82362266495997
ASTRO-H (HITOMI)        
1 41337U 16012A   25029.52864056  .00005901  00000+0  38123-3 0  9996
2 41337  31.0014  78.4239 0010409 234.7118 125.2546 15.06715826491158
HXMT (HUIYAN)           
1 42758U 17034A   25029.57144592  .00015674  00000+0  69691-3 0  9992
2 42758  43.0132  95.9066 0010138 124.7529 235.4277 15.21251492421233
CZ-2C R/B               
1 43521U 18054D   25029.57011864  .00031413  00000+0  69492-3 0  9997
2 43521  35.1414 110.1532 0041610  42.9978 317.3985 15.41888081365665
SAOCOM 1A               
1 43641U 18076A   25029.57483747  .00001124  00000+0  14773-3 0  9995
2 43641  97.8861 218.5387 0001354  89.1898 270.9471 14.82155862341504
H-2A R/B                
1 43682U 18084L   25029.32594859  .00022692  00000+0  90648-3 0  9997
2 43682  98.8566 161.4709 0036784 330.6056  29.3107 15.24531227343831
SAOCOM 1B               
1 46265U 20059A   25029.53860067  .00001119  00000+0  14709-3 0  9997
2 46265  97.8867 217.6056 0001391  88.7479 271.3893 14.82149602238883
CSS (TIANHE)            
1 48274U 21035A   25029.59985759  .00033350  00000+0  42748-3 0  9992
2 48274  41.4657 144.1208 0003029  25.5010 334.5977 15.58462899214496
COSMOS 2550             
1 48865U 21056A   25029.23039134 -.00000087  00000+0  31808-5 0  9998
2 48865  67.1414 184.4707 0008366 270.1959  89.8237 15.33831694201433
CZ-2C R/B               
1 52794U 22058K   25029.49651361  .00022065  00000+0  63801-3 0  9992
2 52794  50.1931 202.1326 0065520 324.9976  34.6688 15.33372102147725
XRISM                   
1 57800U 23137A   25029.30001939  .00010377  00000+0  69100-3 0  9995
2 57800  31.0040   8.3879 0008859 295.0573  64.9144 15.05848474 76665
2023-193D               
1 58556U 23193D   25029.49248403  .01507725  23363-5  80095-3 0  9993
2 58556  97.2265  53.9812 0005333 172.7307 327.0630 16.20021711 65048
ACS3                    
1 59588U 24077B   25029.52359526  .00009686  00000+0  99700-2 0  9995
2 59588  97.5024  53.2076 0061860 212.7152 147.0166 13.75349711 38410
